ONEWEB-0463             
1 51650U 22012AE  22231.25001157  .00058852  00000+0  54817-2 0  9999
2 51650  87.1845 293.8821 0003335 131.0937 129.3531 14.93993193 29683
ONEWEB-0464             
1 51651U 22012AF  22231.25001157 -.00004400  00000+0 -12648-1 0  9997
2 51651  87.8814 314.2023 0002522  92.0899 353.9543 13.10373175 27540
ONEWEB-0468             
1 51652U 22012AG  22231.58334491  .00040787  00000+0  11634+0 0  9992
2 51652  87.8816 314.1487 0001973 102.1556  83.8967 13.10344580 27556
ONEWEB-0473             
1 51653U 22012AH  22231.58334491  .00039506  00000+0  11269+0 0  9994
2 51653  87.8879 314.1594 0002478  97.5786 154.5591 13.10351077 27567
ONEWEB-0474             
1 51654U 22012AJ  22231.58334491  .00038474  00000+0  10975+0 0  9991
2 51654  87.8823 314.1389 0002542  89.8057 199.0851 13.10355730 27547
ONEWEB-0475             
1 51655U 22012AK  22230.91667824 -.00012129  00000+0 -11439-2 0  9997
2 51655  87.1896 294.1295 0003415 117.9817  35.0723 14.94017732 29618`;
const tleStarlink = `STARLINK-71             
1 44252U 19029T   22231.09215229  .00144058  00000+0  27763-2 0  9996
2 44252  52.9925 168.7189 0003940 124.4919 235.6459 15.46866328179614
STARLINK-1007           
1 44713U 19074A   22230.45463179  .00000152  00000+0  29119-4 0  9991
2 44713  53.0553 259.1061 0001367  77.6654 282.4488 15.06403120153094
STARLINK-1008           
1 44714U 19074B   22231.49500915  .00000532  00000+0  54573-4 0  9991
2 44714  53.0527 254.4457 0001477  69.7860 290.3288 15.06402616153259
STARLINK-1009           
1 44715U 19074C   22231.35125444  .00000536  00000+0  54875-4 0  9996
2 44715  53.0539 255.0991 0001552  83.9063 276.2103 15.06403733153227
STARLINK-1010           
1 44716U 19074D   22231.43602976  .00000420  00000+0  47094-4 0  9993
2 44716  53.0529 254.7184 0001300  79.9927 280.1209 15.06402631153229
STARLINK-1011           
1 44717U 19074E   22231.43418068 -.00007643  00000+0 -49424-3 0  9995
2 44717  53.0548 274.7074 0001196  69.3698 290.7419 15.06435922152961
STARLINK-1012           
1 44718U 19074F   22231.40655265  .00000060  00000+0  22897-4 0  9995
2 44718  53.0536 254.8490 0001378  82.5660 277.5485 15.06407851153235
STARLINK-1013           
1 44719U 19074G   22230.48507145  .00000679  00000+0  64515-4 0  9995
2 44719  53.0541 258.9838 0001599  73.0952 287.0212 15.06395151153094
STARLINK-1014           
1 44720U 19074H   22231.49774587  .00000270  00000+0  37023-4 0  9996
2 44720  53.0543 254.4157 0001354  68.1220 291.9913 15.06407496153251
STARLINK-1015           
1 44721U 19074J   22231.35494645  .00001098  00000+0  92582-4 0  9996
2 44721  53.0536 255.0780 0001524  79.3814 280.7347 15.06400213153229
STARLINK-1016           
1 44722U 19074K   22231.42403309  .00000199  00000+0  32245-4 0  9993
2 44722  53.0534 254.7566 0001287  78.0698 282.0436 15.06398192153246
STARLINK-1017           
1 44723U 19074L   22231.50607043  .00001223  00000+0  10102-3 0  9990
2 44723  53.0524 254.4017 0001341  77.1226 282.9913 15.06388564153254
STARLINK-1019           
1 44724U 19074M   22231.33652262  .00003851  00000+0  27718-3 0  9995
2 44724  53.0537 255.1670 0001428  69.2466 290.8676 15.06416353153225
STARLINK-1020           
1 44725U 19074N   22230.54588071  .00000054  00000+0  22502-4 0  9993
2 44725  53.0551 278.6991 0001404  92.0914 268.0236 15.06401495152829
STARLINK-1021           
1 44726U 19074P   22231.39918394 -.00000143  00000+0  92688-5 0  9996
2 44726  53.0532 254.8643 0001278  79.0109 281.1024 15.06389269153230
STARLINK-1022           
1 44727U 19074Q   22231.43508102  .00002076  00000+0  15817-3 0  9997
2 44727  53.0551 294.7200 0001294  76.2656 283.8477 15.06410670152699
STARLINK-1024           
1 44729U 19074S   22231.10763878  .00014155  00000+0  75112-3 0  9991
2 44729  53.0027 261.8365 0001128  96.4496 263.6625 15.15598673153072
STARLINK-1026           
1 44731U 19074U   22231.14485092  .00000786  00000+0  71687-4 0  9996
2 44731  53.0537 256.0230 0001423  70.4056 289.7086 15.06400968153192
STARLINK-1027           
1 44732U 19074V   22231.39733108  .00001967  00000+0  15086-3 0  9990
2 44732  53.0539 274.8763 0001453  64.9712 295.1427 15.06407194152955
STARLINK-1028           
1 44733U 19074W   22230.86471786  .00006275  00000+0  43963-3 0  9995
2 44733  53.0526 257.2641 0001690  61.6269 298.4890 15.06413567152980
STARLINK-1029           
1 44734U 19074X   22230.28232858  .00000637  00000+0  61659-4 0  9996
2 44734  53.0547 179.8929 0001786  61.4830 298.6339 15.06409215154167
STARLINK-1030           
1 44735U 19074Y   22231.40469608  .00002098  00000+0  15969-3 0  9992
2 44735  53.0534 274.8555 0001490  71.5118 288.6033 15.06410019152957
STARLINK-1031           
1 44736U 19074Z   22231.41944228 -.00000587  00000+0 -20504-4 0  9995
2 44736  53.0540 274.7922 0001311  79.3260 280.7876 15.06405201152964
STARLINK-1032           
1 44737U 19074AA  22230.50165199  .00001519  00000+0  12087-3 0  9997
2 44737  53.0534 278.9069 0001501  67.8733 292.2415 15.06398426152826
STARLINK-1033           
1 44738U 19074AB  22231.48211288  .00000830  00000+0  74630-4 0  9995
2 44738  53.0546 274.5103 0001326  75.7710 284.3427 15.06396577152964
STARLINK-1052           
1 44739U 19074AC  22230.60247469  .00020982  00000+0  10721-2 0  9998
2 44739  52.9945 263.6237 0001100  84.8851 275.2267 15.16654815152986
STARLINK-1035           
1 44740U 19074AD  22231.49316333  .00000971  00000+0  84075-4 0  9996
2 44740  53.0526 274.4609 0001521  64.6490 295.4656 15.06405357152979
STARLINK-1036           
1 44741U 19074AE  22231.10614978  .00001699  00000+0  13291-3 0  9990
2 44741  53.0551 276.1888 0001422  89.3652 270.7500 15.06399461152916
STARLINK-1038           
1 44743U 19074AG  22230.55877531  .00002033  00000+0  15528-3 0  9994
2 44743  53.0541 298.6546 0001311  80.2451 279.8686 15.06408026152475
STARLINK-1039           
1 44744U 19074AH  22231.49873287  .00028327  00000+0  19157-2 0  9998
2 44744  53.0547 294.4316 0001732  77.7325 282.3857 15.06346038152696
STARLINK-1041           
1 44746U 19074AK  22231.15221615  .00002683  00000+0  19893-3 0  9990
2 44746  53.0542 295.9922 0001376  74.8824 285.2317 15.06403502152646
STARLINK-1042           
1 44747U 19074AL  22231.18169886  .00001706  00000+0  13334-3 0  9994
2 44747  53.0532 295.8609 0001297  98.2990 261.8146 15.06406120152653
STARLINK-1043           
1 44748U 19074AM  22230.54771759  .00000405  00000+0  46055-4 0  9994
2 44748  53.0560 298.6970 0001316  92.1137 268.0003 15.06403149152553
STARLINK-1046           
1 44751U 19074AQ  22231.15958194 -.00000075  00000+0  13877-4 0  9996
2 44751  53.0547 295.9579 0001232  69.6774 290.4348 15.06406690152645
STARLINK-1047           
1 44752U 19074AR  22231.44524830  .00001462  00000+0  11703-3 0  9990
2 44752  53.0547 274.6752 0001317  68.4451 291.6678 15.06399681152961
STARLINK-1048           
1 44753U 19074AS  22231.38442881  .00002924  00000+0  21510-3 0  9990
2 44753  53.0535 254.9453 0001480  79.0695 281.0460 15.06401536153233
STARLINK-1049           
1 44754U 19074AT  22230.45928160  .00001014  00000+0  86934-4 0  9998
2 44754  53.0532 259.0982 0001282  66.8217 293.2907 15.06394270153099
STARLINK-1034           
1 44757U 19074AW  22230.52745614 -.00000998  00000+0 -48117-4 0  9993
2 44757  53.0550 278.7944 0001400  77.6179 282.4966 15.06398736152823
STARLINK-1053           
1 44758U 19074AX  22230.47769902 -.00000424  00000+0 -95701-5 0  9990
2 44758  53.0551 299.0961 0001352 100.2647 259.8494 15.06401538152536
STARLINK-1054           
1 44759U 19074AY  22231.45445415  .00003439  00000+0  24955-3 0  9998
2 44759  53.0542 294.6215 0001177  87.0293 273.0831 15.06410902152699
STARLINK-1055           
1 44760U 19074AZ  22231.50606570  .00000374  00000+0  44011-4 0  9998
2 44760  53.0546 294.4045 0001287  76.9253 283.1879 15.06401851152708
STARLINK-1056           
1 44761U 19074BA  22231.51714540 -.00002323  00000+0 -13702-3 0  9997
2 44761  53.0555 294.3512 0001401  82.4898 277.6250 15.06428661152701
STARLINK-1057           
1 44762U 19074BB  22231.38627653  .00000483  00000+0  51314-4 0  9996
2 44762  53.0544 274.9387 0001316  93.9111 266.2029 15.06398832152955
STARLINK-1058           
1 44763U 19074BC  22230.60943931  .00001802  00000+0  13988-3 0  9991
2 44763  53.0537 298.4022 0001438  88.9587 271.1566 15.06394461152394
STARLINK-1059           
1 44764U 19074BD  22231.48127845  .00008228  00000+0  54769-3 0  9998
2 44764  53.0547 274.1669 0000576 222.1271 137.9674 15.07930082152977
STARLINK-1060           
1 44765U 19074BE  22231.46736252  .00001777  00000+0  13818-3 0  9997
2 44765  53.0543 274.5655 0001475  83.6053 276.5104 15.06399639152963
STARLINK-1061           
1 44766U 19074BF  22231.46551882  .00000564  00000+0  56764-4 0  9993
2 44766  53.0546 294.5873 0001194  91.7202 268.3924 15.06395238152695
STARLINK-1062           
1 44767U 19074BG  22230.46200265  .00004176  00000+0  29903-3 0  9996
2 44767  53.0538 299.0769 0001397  81.2372 278.8775 15.06404441152549
STARLINK-1063           
1 44768U 19074BH  22231.48025945  .00002575  00000+0  19165-3 0  9990
2 44768  53.0542 294.4968 0001396  81.0247 279.0900 15.06404855152691
STARLINK-1067           
1 44771U 19074BL  22231.20382088  .00000076  00000+0  23991-4 0  9995
2 44771  53.0552 295.7488 0001608  50.4471 309.6659 15.06394210152652
STARLINK-1068           
1 44772U 19074BM  22231.39364410  .00002890  00000+0  21279-3 0  9997
2 44772  53.0528 274.8973 0001369  84.6534 275.4611 15.06402922152957
STARLINK-1073           
1 44914U 20001A   22231.01213994  .00001299  00000+0  10603-3 0  9997
2 44914  53.0557  56.6023 0001335  86.9029 273.2113 15.06412190144105
STARLINK-1084           
1 44915U 20001B   22230.84258720  .00002330  00000+0  17525-3 0  9991
2 44915  53.0571  57.3709 0001241  82.1898 277.9232 15.06404230144085
STARLINK-1098           
1 44917U 20001D   22230.58089744  .00002127  00000+0  16163-3 0  9993
2 44917  53.0549  58.5397 0001474  82.7386 277.3770 15.06403632144046
